{
  "norad_id": 59067,
  "name": "SITRO-AIS 26",
  "history": [
    {
      "epoch": "2026-03-28T22:47:59.403840Z",
      "apogee_km": 690.7443469737909,
      "perigee_km": 488.86853220650937,
      "latitude_deg": 9.903745520864037e-05,
      "longitude_deg": 11.527782827820298,
      "height_km": 628.5598989846828,
      "semi_major_axis_km": 6967.94343959015,
      "eccentricity": 0.01448604,
      "inclination_deg": 95.3934,
      "raan_deg": 179.8884,
      "arg_perigee_deg": 248.6695,
      "mean_anomaly_deg": 109.9017,
      "mean_motion_rev_day": 14.92608247
    },
    {
      "epoch": "2026-03-29T05:14:08.661120Z",
      "apogee_km": 690.7373044950918,
      "perigee_km": 488.84300871785126,
      "latitude_deg": -3.9752124906361745e-05,
      "longitude_deg": -85.09098926662429,
      "height_km": 630.1070760713567,
      "semi_major_axis_km": 6967.927156606472,
      "eccentricity": 0.0144874,
      "inclination_deg": 95.3934,
      "raan_deg": 180.0725,
      "arg_perigee_deg": 247.725,
      "mean_anomaly_deg": 110.8559,
      "mean_motion_rev_day": 14.92613479
    },
    {
      "epoch": "2026-03-30T05:22:13.016064Z",
      "apogee_km": 690.7504551018428,
      "perigee_km": 488.74863697753244,
      "latitude_deg": -2.3939125242368585e-06,
      "longitude_deg": -87.4098081816416,
      "height_km": 635.8455705793124,
      "semi_major_axis_km": 6967.886546039687,
      "eccentricity": 0.0144952,
      "inclination_deg": 95.3935,
      "raan_deg": 180.763,
      "arg_perigee_deg": 244.1854,
      "mean_anomaly_deg": 114.4359,
      "mean_motion_rev_day": 14.92626528
    }
  ]
}